IRIDIUM 57              
1 25273U 98019B   24337.28908807  .00001156  00000+0  39440-3 0  9992
2 25273  86.3987 227.6800 0002149  81.0624 279.0816 14.35614211396744
IRIDIUM 63              
1 25286U 98021B   24336.89631164  .00001251  00000+0  42232-3 0  9993
2 25286  86.4000 164.8394 0001957  92.5197 267.6224 14.36219217395522
IRIDIUM 69              
1 25319U 98026A   24337.50919192  .00001247  00000+0  38547-3 0  9993
2 25319  86.4006 178.4466 0001754   8.9393 351.1838 14.40563752394980
IRIDIUM 71              
1 25320U 98026B   24336.91990706  .00001211  00000+0  37239-3 0  9997
2 25320  86.3999 173.4284 0003431  51.3271 308.8235 14.40800514395189
IRIDIUM 73              
1 25344U 98032C   24337.37926016  .00002198  00000+0  54868-3 0  9996
2 25344  86.4406 130.3906 0001544  77.1161 283.0217 14.51194419402319
IRIDIUM 82              
1 25467U 98051A   24337.37729895  .00033018  00000+0  13241-2 0  9993
2 25467  86.3749 205.4618 0106741 319.4441  39.8882 15.19659599393949
